OBJECT_NAME,OBJECT_ID,EPOCH,MEAN_MOTION,ECCENTRICITY,INCLINATION,RA_OF_ASC_NODE,ARG_OF_PERICENTER,MEAN_ANOMALY,EPHEMERIS_TYPE,CLASSIFICATION_TYPE,NORAD_CAT_ID,ELEMENT_SET_NO,REV_AT_EPOCH,BSTAR,MEAN_MOTION_DOT,MEAN_MOTION_DDOT
PERSEUS-M1,2014-033AF,2026-07-02T13:22:32.010816,14.95683129,.0010124,97.9648,127.9422,243.6906,116.3274,0,U,40039,999,65293,.13352E-3,.1426E-4,0
POLYITAN-1,2014-033AJ,2026-07-01T19:10:51.813120,15.33780662,.00087487,98.0933,210.4473,101.4445,258.7779,0,U,40042,999,65583,.71283433E-3,.2327E-3,0
TIGRISAT,2014-033AK,2026-07-02T09:49:36.429888,14.85217170,.0049718,97.7850,333.0739,26.2474,334.1244,0,U,40043,999,64788,.23566E-3,.201E-4,0
AEROCUBE 6A,2014-033AM,2026-07-02T17:15:25.654752,14.98242397,.003773,97.7231,350.5043,323.8323,36.0349,0,U,40045,999,64894,.50233E-3,.5997E-4,0
AEROCUBE 6B,2014-033AN,2026-07-02T16:56:59.690688,14.99703681,.0037724,97.7222,350.3162,314.5022,45.3120,0,U,40046,999,64908,.44461E-3,.5507E-4,0
CANX-4,2014-034C,2026-07-02T14:53:59.623872,14.81292976,.0012018,98.3101,59.4991,327.0410,33.0051,0,U,40055,999,64681,.1454E-3,.1078E-4,0
CANX-5,2014-034D,2026-07-02T14:51:28.702080,14.81310317,.0012021,98.3103,59.5418,327.2625,32.7840,0,U,40056,999,63762,.14587E-3,.1082E-4,0
UKUBE-1,2014-037F,2026-07-02T05:46:09.738336,15.13782027,.0003152,98.4235,188.0961,109.2963,250.8606,0,U,40074,999,65083,.53119E-3,.9513E-4,0
BRITE-PL2 (HEWELIUSZ),2014-049B,2026-07-02T13:41:19.948992,14.94649737,.0015079,97.9112,295.6901,61.6638,298.6101,0,U,40119,999,64374,.18404E-3,.1939E-4,0
AEROCUBE 5C,2015-058B,2026-07-02T11:00:21.199680,14.91517262,.0131523,64.7652,215.0796,57.3193,304.0524,0,U,40965,999,36793,.24998E-3,.2785E-4,0
AEROCUBE 7,2015-058C,2026-07-02T17:53:27.991104,14.95821322,.012125,64.7602,196.0802,55.5551,305.6951,0,U,40966,999,36828,.36312E-3,.4536E-4,0
FOX-1A (AO-85),2015-058D,2026-07-02T13:52:35.907168,14.91033762,.0131455,64.7737,231.1515,50.6094,310.6573,0,U,40967,999,11586,.2334E-3,.2553E-4,0
SINOD-D 1,2015-058E,2026-07-02T12:30:14.586624,14.95996618,.0120081,64.7729,210.8898,47.0354,314.0753,0,U,40968,999,11895,.32378E-3,.4032E-4,0
SNAP-3 ALICE,2015-058G,2026-07-02T14:29:44.946816,15.64101419,.0023704,64.7494,50.4913,359.6109,0.5016,0,U,40970,999,11929,.13768E-2,.135133E-2,0
LMRST-SAT,2015-058H,2026-07-02T12:53:54.953376,14.90650106,.0133008,64.7742,227.6452,52.6570,308.6572,0,U,40971,999,11584,.22632E-3,.2453E-4,0
SNAP-3 EDDIE,2015-058J,2026-07-02T00:09:57.950208,15.65141975,.00244409,64.7410,43.1813,3.4118,356.7192,0,U,40972,999,12134,.14945776E-2,.153398E-2,0
PROPCUBE 3,2015-058K,2026-07-02T11:14:25.160064,14.94337998,.0124916,64.7664,204.7888,53.9075,307.3528,0,U,40973,999,11708,.31526E-3,.3788E-4,0
BISONSAT,2015-058L,2026-07-02T19:05:23.962272,15.16618830,.0080787,64.7586,123.1656,41.0430,319.6734,0,U,40974,999,11798,.79832E-3,.16879E-3,0
SNAP-3 JIMI,2015-058M,2026-07-02T08:47:21.713856,15.02457254,.0107006,64.7634,171.7410,49.3040,311.7313,0,U,40975,999,11650,.54509E-3,.8037E-4,0
PROPCUBE 1 (FLORA),2015-058N,2026-07-02T13:45:59.711328,14.89283455,.0131626,64.7739,247.5480,54.9311,306.4062,0,U,40976,999,11855,.22099E-3,.2293E-4,0
SINOD-D 3,2015-058P,2026-07-02T10:27:09.779904,14.94100462,.0120158,64.7707,228.2010,52.0872,309.1031,0,U,40977,999,11703,.30359E-3,.3574E-4,0
HORYU-4,2016-012D,2026-07-01T19:00:28.190016,16.27112331,.00086595,30.9791,330.1929,346.1826,13.8606,0,U,41340,999,57316,.11150615E-2,.4204222E-1,-.3865025E-5
RAVAN,2016-067B,2026-07-02T16:14:30.566688,15.56248223,.0001832,97.9862,75.0539,318.4680,41.6434,0,U,41849,999,53010,.76683E-3,.53994E-3,0
CELTEE 1,2016-067C,2026-07-02T14:44:12.116832,15.19833278,.0001804,98.0649,51.2329,125.0064,235.1339,0,U,41850,999,52822,.27081E-3,.5728E-4,0
OPTICUBE 04,2016-067D,2026-07-02T02:59:39.429888,15.09725753,.00169519,98.0684,36.1871,69.3371,290.9672,0,U,41851,999,52742,.17156924E-3,.2704E-4,0
AEROCUBE 8D,2016-067E,2026-07-02T13:55:31.527264,15.24614243,.0005007,98.0657,54.9225,87.2317,272.9492,0,U,41852,999,52841,.35026E-3,.8564E-4,0
AEROCUBE 8C,2016-067F,2026-07-01T08:32:27.317472,15.24848091,.00056441,98.0534,50.8147,28.9587,331.1961,0,U,41853,999,52822,.40921263E-3,.10093E-3,0
CORVUS BC2,2017-042X,2026-07-02T09:45:52.419744,15.06389012,.0014119,97.4073,344.1660,63.2233,297.0438,0,U,42846,999,48935,.29262E-3,.4259E-4,0
CORVUS BC1,2017-042Y,2026-07-02T17:33:54.534816,15.06558945,.0012577,97.4113,345.3026,40.7159,319.5006,0,U,42847,999,48943,.31433E-3,.4599E-4,0
MAKERSAT 0,2017-073D,2026-07-01T17:49:11.898912,15.32570583,.01048938,97.4602,65.3778,220.3477,138.9950,0,U,43016,999,46869,.56438682E-3,.21095E-3,0
